NORAD_CAT_ID,OBJECT_NAME,OBJECT_TYPE,EPOCH,MEAN_MOTION,ECCENTRICITY,INCLINATION,RA_OF_ASC_NODE,ARG_OF_PERICENTER,MEAN_ANOMALY,BSTAR,MEAN_MOTION_DOT,MEAN_MOTION_DDOT,TLE_LINE0,TLE_LINE1,TLE_LINE2,SEMIMAJOR_AXIS,PERIOD,APOGEE,PERIGEE,DECAYED
53137.0,STARLINK-4145,PAYLOAD,2024-01-05 14:02:24,15.08837794,0.0001312,53.2168,138.9954,86.3906,273.7236,5.1646e-05,5.34e-06,0.0,0 STARLINK-4145,1 53137U 22083F   24005.58500545  .00000534  00000-0  51646-4 0  9995,2 53137  53.2168 138.9954 0001312  86.3906 273.7236 15.08837794 81331,6917.887,95.438,540.66,538.845,0.0
53137.0,STARLINK-4145,PAYLOAD,2024-01-05 15:37:47,15.08838847,0.0001317,53.2167,138.6979,88.886,271.2283,5.9855e-05,6.65e-06,0.0,0 STARLINK-4145,1 53137U 22083F   24005.65124448  .00000665  00000-0  59855-4 0  9992,2 53137  53.2167 138.6979 0001317  88.8860 271.2283 15.08838847 81341,6917.884,95.438,540.66,538.838,0.0
53137.0,STARLINK-4145,PAYLOAD,2024-01-06 12:17:48,15.0883759,0.000133,53.2167,134.8329,86.8766,273.2379,1.8465e-06,-2.59e-06,0.0,0 STARLINK-4145,1 53137U 22083F   24006.51236899 -.00000259  00000-0  18465-5 0  9995,2 53137  53.2167 134.8329 0001330  86.8766 273.2379 15.08837590 82103,6917.888,95.438,540.673,538.833,0.0
53137.0,STARLINK-4145,PAYLOAD,2024-01-06 15:28:34,15.08839673,0.0001342,53.2168,134.2379,87.6273,272.4873,1.9844e-05,2.8e-07,0.0,0 STARLINK-4145,1 53137U 22083F   24006.64484717  .00000028  00000-0  19844-4 0  9997,2 53137  53.2168 134.2379 0001342  87.6273 272.4873 15.08839673 81493,6917.881,95.438,540.675,538.818,0.0
53137.0,STARLINK-4145,PAYLOAD,2024-01-07 13:43:59,15.08836064,0.0001202,53.2171,130.0742,85.9019,274.2111,-8.9737e-06,-4.31e-06,0.0,0 STARLINK-4145,1 53137U 22083F   24007.57221221 -.00000431  00000-0 -89737-5 0  9998,2 53137  53.2171 130.0742 0001202  85.9019 274.2111 15.08836064 81631,6917.892,95.438,540.589,538.926,0.0
53137.0,STARLINK-4145,PAYLOAD,2024-01-08 13:34:45,15.0884035,0.000139,53.2176,125.6132,91.2985,268.8166,4.2539e-05,3.89e-06,0.0,0 STARLINK-4145,1 53137U 22083F   24008.56581018  .00000389  00000-0  42539-4 0  9999,2 53137  53.2176 125.6132 0001390  91.2985 268.8166 15.08840350 81787,6917.879,95.438,540.706,538.783,0.0
53137.0,STARLINK-4145,PAYLOAD,2024-01-08 15:10:08,15.08843133,0.0001336,53.2172,125.3171,85.2831,274.8314,6.3412e-05,7.22e-06,0.0,0 STARLINK-4145,1 53137U 22083F   24008.63204807  .00000722  00000-0  63412-4 0  9999,2 53137  53.2172 125.3171 0001336  85.2831 274.8314 15.08843133 82422,6917.871,95.437,540.66,538.812,0.0
53137.0,STARLINK-4145,PAYLOAD,2024-01-09 11:50:10,15.08838922,0.0001424,53.2166,121.4543,70.7671,289.3475,8.1056e-05,1.002e-05,0.0,0 STARLINK-4145,1 53137U 22083F   24009.49317176  .00001002  00000-0  81056-4 0  9994,2 53137  53.2166 121.4543 0001424  70.7671 289.3475 15.08838922 82557,6917.884,95.438,540.734,538.764,0.0
53137.0,STARLINK-4145,PAYLOAD,2024-01-09 13:25:33,15.08841193,0.0001512,53.2164,121.1569,76.8368,283.2792,8.7264e-05,1.101e-05,0.0,0 STARLINK-4145,1 53137U 22083F   24009.55941030  .00001101  00000-0  87264-4 0  9990,2 53137  53.2164 121.1569 0001512  76.8368 283.2792 15.08841193 81938,6917.877,95.437,540.788,538.696,0.0
53137.0,STARLINK-4145,PAYLOAD,2024-01-09 16:36:18,15.08847504,0.0001287,53.2172,120.5572,99.3832,260.7305,0.00014478,2.017e-05,0.0,0 STARLINK-4145,1 53137U 22083F   24009.69188278  .00002017  00000-0  14478-3 0  9995,2 53137  53.2172 120.5572 0001287  99.3832 260.7305 15.08847504 82583,6917.857,95.437,540.613,538.832,0.0
53137.0,STARLINK-4145,PAYLOAD,2024-01-10 11:40:56,15.0885022,0.0001235,53.217,116.9884,104.9865,255.1264,1.6301e-05,-2.8e-07,0.0,0 STARLINK-4145,1 53137U 22083F   24010.48676066 -.00000028  00000-0  16301-4 0  9990,2 53137  53.2170 116.9884 0001235 104.9865 255.1264 15.08850220 82073,6917.849,95.437,540.569,538.86,0.0
53137.0,STARLINK-4145,PAYLOAD,2024-01-11 11:31:43,15.08840636,0.0001101,53.2183,112.5305,109.8926,250.2185,1.3569e-05,-7.2e-07,0.0,0 STARLINK-4145,1 53137U 22083F   24011.48036364 -.00000072  00000-0  13569-4 0  9994,2 53137  53.2183 112.5305 0001101 109.8926 250.2185 15.08840636 82855,6917.878,95.438,540.505,538.982,0.0
53137.0,STARLINK-4145,PAYLOAD,2024-01-11 13:07:06,15.08840335,0.000136,53.2166,112.2334,94.2964,265.8184,1.3512e-05,-7.3e-07,0.0,0 STARLINK-4145,1 53137U 22083F   24011.54660530 -.00000073  00000-0  13512-4 0  9998,2 53137  53.2166 112.2334 0001360  94.2964 265.8184 15.08840335 82230,6917.879,95.438,540.685,538.804,0.0
53137.0,STARLINK-4145,PAYLOAD,2024-01-12 12:57:53,15.08848526,0.000171,53.2176,107.7757,63.8843,296.2325,-1.1514e-05,-4.71e-06,0.0,0 STARLINK-4145,1 53137U 22083F   24012.54020195 -.00000471  00000-0 -11514-4 0  9999,2 53137  53.2176 107.7757 0001710  63.8843 296.2325 15.08848526 82387,6917.854,95.437,540.902,538.536,0.0
53137.0,STARLINK-4145,PAYLOAD,2024-01-13 11:13:18,15.08831033,0.0001492,53.2187,103.6131,93.8446,266.2717,3.0532e-05,1.98e-06,0.0,0 STARLINK-4145,1 53137U 22083F   24013.46757418  .00000198  00000-0  30532-4 0  9991,2 53137  53.2187 103.6131 0001492  93.8446 266.2717 15.08831033 83152,6917.908,95.438,540.805,538.741,0.0
53137.0,STARLINK-4145,PAYLOAD,2024-01-13 12:48:41,15.0883429,0.0001541,53.2184,103.3153,96.4167,263.7001,5.7845e-05,6.33e-06,0.0,0 STARLINK-4145,1 53137U 22083F   24013.53381217  .00000633  00000-0  57845-4 0  9999,2 53137  53.2184 103.3153 0001541  96.4167 263.7001 15.08834290 82531,6917.898,95.438,540.829,538.697,0.0
53137.0,STARLINK-4145,PAYLOAD,2024-01-14 11:04:05,15.08834832,0.0001505,53.2181,99.1523,96.5097,263.6067,1.581e-05,-3.6e-07,0.0,0 STARLINK-4145,1 53137U 22083F   24014.46117784 -.00000036  00000-0  15810-4 0  9992,2 53137  53.2181  99.1523 0001505  96.5097 263.6067 15.08834832 82672,6917.896,95.438,540.802,538.72,0.0
53137.0,STARLINK-4145,PAYLOAD,2024-01-15 12:30:15,15.08846309,0.000135,53.218,94.3946,82.4118,277.7028,0.00016439,2.33e-05,0.0,0 STARLINK-4145,1 53137U 22083F   24015.52101195  .00002330  00000-0  16439-3 0  9994,2 53137  53.2180  94.3946 0001350  82.4118 277.7028 15.08846309 83466,6917.861,95.437,540.66,538.792,0.0
53137.0,STARLINK-4145,PAYLOAD,2024-01-16 04:24:08,15.08832262,0.0001455,53.2188,91.4202,90.5217,269.5942,4.2519e-05,3.89e-06,0.0,0 STARLINK-4145,1 53137U 22083F   24016.18342654  .00000389  00000-0  42519-4 0  9995,2 53137  53.2188  91.4202 0001455  90.5217 269.5942 15.08832262 83561,6917.904,95.438,540.776,538.762,0.0
53137.0,STARLINK-4145,PAYLOAD,2024-01-16 12:21:03,15.08838536,0.0001538,53.2179,89.9323,75.271,284.8452,8.4844e-05,1.063e-05,0.0,0 STARLINK-4145,1 53137U 22083F   24016.51462434  .00001063  00000-0  84844-4 0  9998,2 53137  53.2179  89.9323 0001538  75.2710 284.8452 15.08838536 82988,6917.885,95.438,540.814,538.686,0.0
53137.0,STARLINK-4145,PAYLOAD,2024-01-17 12:11:50,15.08843536,0.0001717,53.2176,85.4723,67.8024,292.315,7.7219e-05,9.41e-06,0.0,0 STARLINK-4145,1 53137U 22083F   24017.50822241  .00000941  00000-0  77219-4 0  9996,2 53137  53.2176  85.4723 0001717  67.8024 292.3150 15.08843536 83137,6917.87,95.437,540.922,538.547,0.0
53137.0,STARLINK-4145,PAYLOAD,2024-01-18 04:05:41,15.08842526,0.0001739,53.2177,82.5019,73.276,286.8423,0.00014877,2.081e-05,0.0,0 STARLINK-4145,1 53137U 22083F   24018.17062384  .00002081  00000-0  14877-3 0  9991,2 53137  53.2177  82.5019 0001739  73.2760 286.8423 15.08842526 83865,6917.873,95.437,540.941,538.535,0.0
53137.0,STARLINK-4145,PAYLOAD,2024-01-18 10:27:14,15.0884271,0.0001611,53.2177,81.3112,70.0043,290.1122,0.00018602,2.674e-05,0.0,0 STARLINK-4145,1 53137U 22083F   24018.43558397  .00002674  00000-0  18602-3 0  9992,2 53137  53.2177  81.3112 0001611  70.0043 290.1122 15.08842710 83278,6917.872,95.437,540.852,538.623,0.0
53137.0,STARLINK-4145,PAYLOAD,2024-01-19 10:18:01,15.08846378,0.0001383,53.2177,76.8507,82.1409,277.974,5.0101e-05,5.1e-06,0.0,0 STARLINK-4145,1 53137U 22083F   24019.42918161  .00000510  00000-0  50101-4 0  9999,2 53137  53.2177  76.8507 0001383  82.1409 277.9740 15.08846378 84051,6917.861,95.437,540.683,538.769,0.0
53137.0,STARLINK-4145,PAYLOAD,2024-01-20 08:33:25,15.0883909,0.000169,53.2189,72.687,107.5826,252.5351,3.7919e-05,3.15e-06,0.0,0 STARLINK-4145,1 53137U 22083F   24020.35654411  .00000315  00000-0  37919-4 0  9993,2 53137  53.2189  72.6870 0001690 107.5826 252.5351 15.08839090 84192,6917.883,95.438,540.917,538.579,0.0
53137.0,STARLINK-4145,PAYLOAD,2024-01-21 09:59:35,15.08837033,0.0001708,53.2193,67.9292,109.3339,250.7837,4.3279e-05,4.01e-06,0.0,0 STARLINK-4145,1 53137U 22083F   24021.41638761  .00000401  00000-0  43279-4 0  9993,2 53137  53.2193  67.9292 0001708 109.3339 250.7837 15.08837033 84353,6917.889,95.438,540.936,538.573,0.0
53137.0,STARLINK-4145,PAYLOAD,2024-01-22 06:39:36,15.08834282,0.0001502,53.2182,64.0631,97.318,262.7983,5.1226e-05,5.27e-06,0.0,0 STARLINK-4145,1 53137U 22083F   24022.27751156  .00000527  00000-0  51226-4 0  9992,2 53137  53.2182  64.0631 0001502  97.3180 262.7983 15.08834282 83850,6917.898,95.438,540.802,538.724,0.0
53137.0,STARLINK-4145,PAYLOAD,2024-01-22 11:25:46,15.08839837,0.0001403,53.2178,63.1708,85.406,274.7093,9.5182e-05,1.227e-05,0.0,0 STARLINK-4145,1 53137U 22083F   24022.47622764  .00001227  00000-0  95182-4 0  9993,2 53137  53.2178  63.1708 0001403  85.4060 274.7093 15.08839837 84515,6917.881,95.438,540.716,538.775,0.0
53137.0,STARLINK-4145,PAYLOAD,2024-01-23 06:30:23,15.08848582,0.0002054,53.2193,59.6075,130.9342,229.1828,-2.3547e-05,-6.63e-06,0.0,0 STARLINK-4145,1 53137U 22083F   24023.27110716 -.00000663  00000-0 -23547-4 0  9992,2 53137  53.2193  59.6075 0002054 130.9342 229.1828 15.08848582 84002,6917.854,95.437,541.14,538.298,0.0
53137.0,STARLINK-4145,PAYLOAD,2024-01-23 09:41:09,15.08846094,0.0001448,53.2173,59.0074,90.3998,269.716,0.00011515,1.545e-05,0.0,0 STARLINK-4145,1 53137U 22083F   24023.40358495  .00001545  00000-0  11515-3 0  9994,2 53137  53.2173  59.0074 0001448  90.3998 269.7160 15.08846094 84022,6917.862,95.437,540.728,538.725,0.0
